[{"OBJECT_NAME":"DMSP 5D-3 F16 (USA 172)","OBJECT_ID":"2003-048A","EPOCH":"2026-04-01T12:07:39.897696","MEAN_MOTION":14.14470943,"ECCENTRICITY":0.0007183,"INCLINATION":98.9964,"RA_OF_ASC_NODE":114.8028,"ARG_OF_PERICENTER":13.5105,"MEAN_ANOMALY":146.1387,"EPHEMERIS_TYPE":0,"CLASSIFICATION_TYPE":"U","NORAD_CAT_ID":28054,"ELEMENT_SET_NO":999,"REV_AT_EPOCH":15864,"BSTAR":0.00010585,"MEAN_MOTION_DOT":1.57e-6,"MEAN_MOTION_DDOT":0},{"OBJECT_NAME":"METEOSAT-9 (MSG-2)","OBJECT_ID":"2005-049B","EPOCH":"2026-03-31T01:11:15.696672","MEAN_MOTION":1.00272415,"ECCENTRICITY":3.92e-5,"INCLINATION":9.1872,"RA_OF_ASC_NODE":54.9206,"ARG_OF_PERICENTER":169.9861,"MEAN_ANOMALY":26.9682,"EPHEMERIS_TYPE":0,"CLASSIFICATION_TYPE":"U","NORAD_CAT_ID":28912,"ELEMENT_SET_NO":999,"REV_AT_EPOCH":621,"BSTAR":0,"MEAN_MOTION_DOT":1.16e-6,"MEAN_MOTION_DDOT":0},{"OBJECT_NAME":"DMSP 5D-3 F17 (USA 191)","OBJECT_ID":"2006-050A","EPOCH":"2026-04-01T10:44:18.110112","MEAN_MOTION":14.14974254,"ECCENTRICITY":0.0008907,"INCLINATION":98.7408,"RA_OF_ASC_NODE":99.5811,"ARG_OF_PERICENTER":276.1497,"MEAN_ANOMALY":83.8661,"EPHEMERIS_TYPE":0,"CLASSIFICATION_TYPE":"U","NORAD_CAT_ID":29522,"ELEMENT_SET_NO":999,"REV_AT_EPOCH":157,"BSTAR":0.00011623,"MEAN_MOTION_DOT":1.81e-6,"MEAN_MOTION_DDOT":0},{"OBJECT_NAME":"FENGYUN 3A","OBJECT_ID":"2008-026A","EPOCH":"2026-04-01T08:39:30.203136","MEAN_MOTION":14.19553247,"ECCENTRICITY":0.0008663,"INCLINATION":98.6827,"RA_OF_ASC_NODE":33.6559,"ARG_OF_PERICENTER":356.9621,"MEAN_ANOMALY":3.1501,"EPHEMERIS_TYPE":0,"CLASSIFICATION_TYPE":"U","NORAD_CAT_ID":32958,"ELEMENT_SET_NO":999,"REV_AT_EPOCH":92450,"BSTAR":7.1405e-5,"MEAN_MOTION_DOT":1.07e-6,"MEAN_MOTION_DDOT":0},{"OBJECT_NAME":"GOES 14","OBJECT_ID":"2009-033A","EPOCH":"2026-04-01T12:33:49.421088","MEAN_MOTION":1.00110429,"ECCENTRICITY":0.0001778,"INCLINATION":1.4927,"RA_OF_ASC_NODE":83.9748,"ARG_OF_PERICENTER":288.5808,"MEAN_ANOMALY":190.7305,"EPHEMERIS_TYPE":0,"CLASSIFICATION_TYPE":"U","NORAD_CAT_ID":35491,"ELEMENT_SET_NO":999,"REV_AT_EPOCH":582,"BSTAR":0,"MEAN_MOTION_DOT":5.1e-7,"MEAN_MOTION_DDOT":0},{"OBJECT_NAME":"DMSP 5D-3 F18 (USA 210)","OBJECT_ID":"2009-057A","EPOCH":"2026-04-01T11:36:40.163616","MEAN_MOTION":14.14850759,"ECCENTRICITY":0.0012123,"INCLINATION":98.8995,"RA_OF_ASC_NODE":72.4418,"ARG_OF_PERICENTER":106.9314,"MEAN_ANOMALY":253.3189,"EPHEMERIS_TYPE":0,"CLASSIFICATION_TYPE":"U","NORAD_CAT_ID":35951,"ELEMENT_SET_NO":999,"REV_AT_EPOCH":84874,"BSTAR":0.00018595,"MEAN_MOTION_DOT":3.15e-6,"MEAN_MOTION_DDOT":0},{"OBJECT_NAME":"EWS-G2 (GOES 15)","OBJECT_ID":"2010-008A","EPOCH":"2026-04-01T11:29:54.343680","MEAN_MOTION":1.00271184,"ECCENTRICITY":0.0003058,"INCLINATION":1.0773,"RA_OF_ASC_NODE":84.3862,"ARG_OF_PERICENTER":18.0206,"MEAN_ANOMALY":323.1896,"EPHEMERIS_TYPE":0,"CLASSIFICATION_TYPE":"U","NORAD_CAT_ID":36411,"ELEMENT_SET_NO":999,"REV_AT_EPOCH":5886,"BSTAR":0,"MEAN_MOTION_DOT":1.4e-7,"MEAN_MOTION_DDOT":0},{"OBJECT_NAME":"COMS 1","OBJECT_ID":"2010-032A","EPOCH":"2026-04-01T08:23:04.762752","MEAN_MOTION":1.00271743,"ECCENTRICITY":0.000113,"INCLINATION":4.6073,"RA_OF_ASC_NODE":76.4318,"ARG_OF_PERICENTER":301.3021,"MEAN_ANOMALY":65.8903,"EPHEMERIS_TYPE":0,"CLASSIFICATION_TYPE":"U","NORAD_CAT_ID":36744,"ELEMENT_SET_NO":999,"REV_AT_EPOCH":5032,"BSTAR":0,"MEAN_MOTION_DOT":-3.5e-6,"MEAN_MOTION_DDOT":0},{"OBJECT_NAME":"FENGYUN 3B","OBJECT_ID":"2010-059A","EPOCH":"2026-04-01T12:16:43.338144","MEAN_MOTION":14.14822927,"ECCENTRICITY":0.0022885,"INCLINATION":98.9719,"RA_OF_ASC_NODE":137.1705,"ARG_OF_PERICENTER":46.2084,"MEAN_ANOMALY":59.5165,"EPHEMERIS_TYPE":0,"CLASSIFICATION_TYPE":"U","NORAD_CAT_ID":37214,"ELEMENT_SET_NO":999,"REV_AT_EPOCH":79658,"BSTAR":3.0415e-5,"MEAN_MOTION_DOT":1.4e-7,"MEAN_MOTION_DDOT":0},{"OBJECT_NAME":"SUOMI NPP","OBJECT_ID":"2011-061A","EPOCH":"2026-04-01T12:14:46.570272","MEAN_MOTION":14.19499614,"ECCENTRICITY":0.0001865,"INCLINATION":98.7899,"RA_OF_ASC_NODE":32.9347,"ARG_OF_PERICENTER":150.3832,"MEAN_ANOMALY":209.7449,"EPHEMERIS_TYPE":0,"CLASSIFICATION_TYPE":"U","NORAD_CAT_ID":37849,"ELEMENT_SET_NO":999,"REV_AT_EPOCH":74756,"BSTAR":6.9283e-5,"MEAN_MOTION_DOT":1.02e-6,"MEAN_MOTION_DDOT":0},{"OBJECT_NAME":"METEOSAT-10 (MSG-3)","OBJECT_ID":"2012-035B","EPOCH":"2026-04-01T05:39:38.780928","MEAN_MOTION":1.00272409,"ECCENTRICITY":0.0002443,"INCLINATION":4.4907,"RA_OF_ASC_NODE":61.3402,"ARG_OF_PERICENTER":290.7571,"MEAN_ANOMALY":282.4657,"EPHEMERIS_TYPE":0,"CLASSIFICATION_TYPE":"U","NORAD_CAT_ID":38552,"ELEMENT_SET_NO":999,"REV_AT_EPOCH":5008,"BSTAR":0,"MEAN_MOTION_DOT":-1.4e-7,"MEAN_MOTION_DDOT":0},{"OBJECT_NAME":"METOP-B","OBJECT_ID":"2012-049A","EPOCH":"2026-04-01T11:06:31.161888","MEAN_MOTION":14.21425862,"ECCENTRICITY":0.0002239,"INCLINATION":98.6592,"RA_OF_ASC_NODE":144.4633,"ARG_OF_PERICENTER":179.7697,"MEAN_ANOMALY":180.3482,"EPHEMERIS_TYPE":0,"CLASSIFICATION_TYPE":"U","NORAD_CAT_ID":38771,"ELEMENT_SET_NO":999,"REV_AT_EPOCH":70236,"BSTAR":8.3851e-5,"MEAN_MOTION_DOT":1.4e-6,"MEAN_MOTION_DDOT":0},{"OBJECT_NAME":"INSAT-3D","OBJECT_ID":"2013-038B","EPOCH":"2026-04-01T11:48:52.524576","MEAN_MOTION":1.00267639,"ECCENTRICITY":0.0001482,"INCLINATION":1.7286,"RA_OF_ASC_NODE":83.5034,"ARG_OF_PERICENTER":256.8368,"MEAN_ANOMALY":156.2255,"EPHEMERIS_TYPE":0,"CLASSIFICATION_TYPE":"U","NORAD_CAT_ID":39216,"ELEMENT_SET_NO":999,"REV_AT_EPOCH":4631,"BSTAR":0,"MEAN_MOTION_DOT":-3.47e-6,"MEAN_MOTION_DDOT":0},{"OBJECT_NAME":"FENGYUN 3C","OBJECT_ID":"2013-052A","EPOCH":"2026-04-01T12:05:25.538784","MEAN_MOTION":14.15736221,"ECCENTRICITY":0.0013589,"INCLINATION":98.493,"RA_OF_ASC_NODE":68.9258,"ARG_OF_PERICENTER":242.2584,"MEAN_ANOMALY":117.7213,"EPHEMERIS_TYPE":0,"CLASSIFICATION_TYPE":"U","NORAD_CAT_ID":39260,"ELEMENT_SET_NO":999,"REV_AT_EPOCH":64771,"BSTAR":8.3494e-5,"MEAN_MOTION_DOT":1.23e-6,"MEAN_MOTION_DDOT":0},{"OBJECT_NAME":"METEOR-M 2","OBJECT_ID":"2014-037A","EPOCH":"2026-04-01T11:45:53.012160","MEAN_MOTION":14.21438884,"ECCENTRICITY":0.000455,"INCLINATION":98.5052,"RA_OF_ASC_NODE":69.9704,"ARG_OF_PERICENTER":259.6226,"MEAN_ANOMALY":100.4439,"EPHEMERIS_TYPE":0,"CLASSIFICATION_TYPE":"U","NORAD_CAT_ID":40069,"ELEMENT_SET_NO":999,"REV_AT_EPOCH":60842,"BSTAR":0.00021936,"MEAN_MOTION_DOT":4.37e-6,"MEAN_MOTION_DDOT":0},{"OBJECT_NAME":"HIMAWARI-8","OBJECT_ID":"2014-060A","EPOCH":"2026-04-01T10:13:57.821088","MEAN_MOTION":1.00271458,"ECCENTRICITY":8.5e-5,"INCLINATION":0.0032,"RA_OF_ASC_NODE":183.4361,"ARG_OF_PERICENTER":199.1742,"MEAN_ANOMALY":101.3105,"EPHEMERIS_TYPE":0,"CLASSIFICATION_TYPE":"U","NORAD_CAT_ID":40267,"ELEMENT_SET_NO":999,"REV_AT_EPOCH":4199,"BSTAR":0,"MEAN_MOTION_DOT":-2.85e-6,"MEAN_MOTION_DDOT":0},{"OBJECT_NAME":"FENGYUN 2G","OBJECT_ID":"2014-090A","EPOCH":"2026-04-01T11:40:15.851712","MEAN_MOTION":1.00262452,"ECCENTRICITY":0.0001564,"INCLINATION":5.4462,"RA_OF_ASC_NODE":73.7307,"ARG_OF_PERICENTER":145.7694,"MEAN_ANOMALY":244.7495,"EPHEMERIS_TYPE":0,"CLASSIFICATION_TYPE":"U","NORAD_CAT_ID":40367,"ELEMENT_SET_NO":999,"REV_AT_EPOCH":4123,"BSTAR":0,"MEAN_MOTION_DOT":-3.04e-6,"MEAN_MOTION_DDOT":0}]
